ASTROCAST 0.1           
1 43798U 18099AS  26200.26896563  .00021974  00000+0  37089-3 0  9995
2 43798  97.4363 279.8167 0005404 118.0397 242.1403 15.51643833419400
ASTROCAST-0402          
1 55109U 23001DE  26200.24531372  .00007079  00000+0  25343-3 0  9995
2 55109  97.5578 293.9351 0006610 123.5754 236.6118 15.29069726149430
ASTROCAST-0401          
1 55110U 23001DF  26200.19656542  .00010120  00000+0  36559-3 0  9990
2 55110  97.5562 293.6874 0009499  96.6389 263.5932 15.28631860196094
ASTROCAST-0403          
1 55111U 23001DG  26200.20325372  .00012855  00000+0  41225-3 0  9990
2 55111  97.5619 295.0411 0005082 197.8711 162.2352 15.32464986149466
ASTROCAST-0404          
1 55112U 23001DH  26200.21402128  .00004315  00000+0  15665-3 0  9998
2 55112  97.5665 294.8395 0005398 225.7415 134.3382 15.28859604149427
