{"fetched_at":"2026-07-19T17:31:20.341Z","source":"https://celestrak.org/NORAD/elements/gp.php?NAME=ASTROCAST&FORMAT=JSON","constellation":"astrocast","records":[{"OBJECT_NAME":"ASTROCAST 0.1","OBJECT_ID":"2018-099AS","EPOCH":"2026-07-19T06:27:18.630432","CLASSIFICATION_TYPE":"U","MEAN_MOTION":15.51643833,"ECCENTRICITY":0.00054043,"INCLINATION":97.4363,"RA_OF_ASC_NODE":279.8167,"ARG_OF_PERICENTER":118.0397,"MEAN_ANOMALY":242.1403,"EPHEMERIS_TYPE":0,"NORAD_CAT_ID":43798,"ELEMENT_SET_NO":999,"REV_AT_EPOCH":41940,"BSTAR":0.00037089345,"MEAN_MOTION_DOT":0.00021974,"MEAN_MOTION_DDOT":0},{"OBJECT_NAME":"ASTROCAST-0402","OBJECT_ID":"2023-001DE","EPOCH":"2026-07-19T05:53:15.105408","CLASSIFICATION_TYPE":"U","MEAN_MOTION":15.29069726,"ECCENTRICITY":0.00066106,"INCLINATION":97.5578,"RA_OF_ASC_NODE":293.9351,"ARG_OF_PERICENTER":123.5754,"MEAN_ANOMALY":236.6118,"EPHEMERIS_TYPE":0,"NORAD_CAT_ID":55109,"ELEMENT_SET_NO":999,"REV_AT_EPOCH":14943,"BSTAR":0.00025343428,"MEAN_MOTION_DOT":0.00007079,"MEAN_MOTION_DDOT":0},{"OBJECT_NAME":"ASTROCAST-0401","OBJECT_ID":"2023-001DF","EPOCH":"2026-07-19T04:43:03.252288","CLASSIFICATION_TYPE":"U","MEAN_MOTION":15.2863186,"ECCENTRICITY":0.00094992,"INCLINATION":97.5562,"RA_OF_ASC_NODE":293.6874,"ARG_OF_PERICENTER":96.6389,"MEAN_ANOMALY":263.5932,"EPHEMERIS_TYPE":0,"NORAD_CAT_ID":55110,"ELEMENT_SET_NO":999,"REV_AT_EPOCH":19609,"BSTAR":0.00036558968,"MEAN_MOTION_DOT":0.0001012,"MEAN_MOTION_DDOT":0},{"OBJECT_NAME":"ASTROCAST-0403","OBJECT_ID":"2023-001DG","EPOCH":"2026-07-19T04:52:41.121408","CLASSIFICATION_TYPE":"U","MEAN_MOTION":15.32464986,"ECCENTRICITY":0.00050826,"INCLINATION":97.5619,"RA_OF_ASC_NODE":295.0411,"ARG_OF_PERICENTER":197.8711,"MEAN_ANOMALY":162.2352,"EPHEMERIS_TYPE":0,"NORAD_CAT_ID":55111,"ELEMENT_SET_NO":999,"REV_AT_EPOCH":14946,"BSTAR":0.00041225303,"MEAN_MOTION_DOT":0.00012855,"MEAN_MOTION_DDOT":0},{"OBJECT_NAME":"ASTROCAST-0404","OBJECT_ID":"2023-001DH","EPOCH":"2026-07-19T05:08:11.438592","CLASSIFICATION_TYPE":"U","MEAN_MOTION":15.28859604,"ECCENTRICITY":0.00053986,"INCLINATION":97.5665,"RA_OF_ASC_NODE":294.8395,"ARG_OF_PERICENTER":225.7415,"MEAN_ANOMALY":134.3382,"EPHEMERIS_TYPE":0,"NORAD_CAT_ID":55112,"ELEMENT_SET_NO":999,"REV_AT_EPOCH":14942,"BSTAR":0.00015665009,"MEAN_MOTION_DOT":0.00004315,"MEAN_MOTION_DDOT":0}]}
